{"type": "FeatureCollection", "features": [ {"type": "Feature", "properties": {"norad_id": 33980, "name": "COSMOS 2251 DEB", "group": "cosmos-2251-debris", "lat": 21.975579715219602, "lon": -139.88774575079418, "alt_km": 680.1166098419089, "timestamp": "2025-12-19T08:58:49.730284+00:00", "meta": {"OBJECT_NAME": "COSMOS 2251 DEB", "OBJECT_ID": "1993-036FP", "EPOCH": "2025-12-18T14:51:09.810720", "MEAN_MOTION": 14.58684371, "ECCENTRICITY": 0.00283481, "INCLINATION": 74.0214, "RA_OF_ASC_NODE": 48.1908, "ARG_OF_PERICENTER": 192.3406, "MEAN_ANOMALY": 320.049, "EPHEMERIS_TYPE": 0, "CLASSIFICATION_TYPE": "U", "NORAD_CAT_ID": 33980, "ELEMENT_SET_NO": 999, "REV_AT_EPOCH": 88880, "BSTAR": 0.00044200045, "MEAN_MOTION_DOT": 2.043e-05, "MEAN_MOTION_DDOT": 0}, "tle": {"line1": "1 33980U 93036FP  25352.61886355  .00002043  00000+0  44200-3 0  9994", "line2": "2 33980  74.0214  48.1908 0028348 192.3406 320.0490 14.58684371888800"}}, "geometry": {"type": "Point", "coordinates": [-139.88774575079418, 21.975579715219602]}}, {"type": "Feature", "properties": {"norad_id": 33982, "name": "COSMOS 2251 DEB", "group": "cosmos-2251-debris", "lat": 46.58631305118391, "lon": 4.867010387940978, "alt_km": 637.6887420545672, "timestamp": "2025-12-19T08:58:49.730294+00:00", "meta": {"OBJECT_NAME": "COSMOS 2251 DEB", "OBJECT_ID": "1993-036FR", "EPOCH": "2025-12-18T10:25:15.223872", "MEAN_MOTION": 14.60234804, "ECCENTRICITY": 0.00752449, "INCLINATION": 74.0705, "RA_OF_ASC_NODE": 349.0869, "ARG_OF_PERICENTER": 31.9425, "MEAN_ANOMALY": 117.5988, "EPHEMERIS_TYPE": 0, "CLASSIFICATION_TYPE": "U", "NORAD_CAT_ID": 33982, "ELEMENT_SET_NO": 999, "REV_AT_EPOCH": 89242, "BSTAR": 0.00037606811, "MEAN_MOTION_DOT": 1.857e-05, "MEAN_MOTION_DDOT": 0}, "tle": {"line1": "1 33982U 93036FR  25352.43420398  .00001857  00000+0  37607-3 0  9992", "line2": "2 33982  74.0705 349.0869 0075244  31.9425 117.5988 14.60234804892421"}}, "geometry": {"type": "Point", "coordinates": [4.867010387940978, 46.58631305118391]}}, {"type": "Feature", "properties": {"norad_id": 33983, "name": "COSMOS 2251 DEB", "group": "cosmos-2251-debris", "lat": 62.27333155316853, "lon": -78.38117498483182, "alt_km": 725.3122604044684, "timestamp": "2025-12-19T08:58:49.730304+00:00", "meta": {"OBJECT_NAME": "COSMOS 2251 DEB", "OBJECT_ID": "1993-036FS", "EPOCH": "2025-12-18T21:26:18.394080", "MEAN_MOTION": 14.5069475, "ECCENTRICITY": 0.00212143, "INCLINATION": 74.0492, "RA_OF_ASC_NODE": 135.4878, "ARG_OF_PERICENTER": 237.7375, "MEAN_ANOMALY": 244.8271, "EPHEMERIS_TYPE": 0, "CLASSIFICATION_TYPE": "U", "NORAD_CAT_ID": 33983, "ELEMENT_SET_NO": 999, "REV_AT_EPOCH": 88718, "BSTAR": 0.00041354395, "MEAN_MOTION_DOT": 1.602e-05, "MEAN_MOTION_DDOT": 0}, "tle": {"line1": "1 33983U 93036FS  25352.89326845  .00001602  00000+0  41354-3 0  9997", "line2": "2 33983  74.0492 135.4878 0021214 237.7375 244.8271 14.50694750887185"}}, "geometry": {"type": "Point", "coordinates": [-78.38117498483182, 62.27333155316853]}}, {"type": "Feature", "properties": {"norad_id": 33984, "name": "COSMOS 2251 DEB", "group": "cosmos-2251-debris", "lat": -51.18181995270571, "lon": 175.17216261322355, "alt_km": 671.9123960413326, "timestamp": "2025-12-19T08:58:49.730314+00:00", "meta": {"OBJECT_NAME": "COSMOS 2251 DEB", "OBJECT_ID": "1993-036FT", "EPOCH": "2025-12-18T09:40:43.665888", "MEAN_MOTION": 14.66411414, "ECCENTRICITY": 0.00227873, "INCLINATION": 74.0089, "RA_OF_ASC_NODE": 336.1647, "ARG_OF_PERICENTER": 172.6785, "MEAN_ANOMALY": 337.7874, "EPHEMERIS_TYPE": 0, "CLASSIFICATION_TYPE": "U", "NORAD_CAT_ID": 33984, "ELEMENT_SET_NO": 999, "REV_AT_EPOCH": 89149, "BSTAR": 0.00066476657, "MEAN_MOTION_DOT": 3.661e-05, "MEAN_MOTION_DDOT": 0}, "tle": {"line1": "1 33984U 93036FT  25352.40328317  .00003661  00000+0  66477-3 0  9991", "line2": "2 33984  74.0089 336.1647 0022787 172.6785 337.7874 14.66411414891491"}}, "geometry": {"type": "Point", "coordinates": [175.17216261322355, -51.18181995270571]}}, {"type": "Feature", "properties": {"norad_id": 33986, "name": "COSMOS 2251 DEB", "group": "cosmos-2251-debris", "lat": 45.89894021156561, "lon": -52.47166340862399, "alt_km": 723.5300493726827, "timestamp": "2025-12-19T08:58:49.730324+00:00", "meta": {"OBJECT_NAME": "COSMOS 2251 DEB", "OBJECT_ID": "1993-036FV", "EPOCH": "2025-12-18T21:25:07.387968", "MEAN_MOTION": 14.43233693, "ECCENTRICITY": 0.00407833, "INCLINATION": 74.0369, "RA_OF_ASC_NODE": 291.2436, "ARG_OF_PERICENTER": 2.5986, "MEAN_ANOMALY": 63.5229, "EPHEMERIS_TYPE": 0, "CLASSIFICATION_TYPE": "U", "NORAD_CAT_ID": 33986, "ELEMENT_SET_NO": 999, "REV_AT_EPOCH": 88117, "BSTAR": 0.00054447356, "MEAN_MOTION_DOT": 1.824e-05, "MEAN_MOTION_DDOT": 0}, "tle": {"line1": "1 33986U 93036FV  25352.89244662  .00001824  00000+0  54447-3 0  9999", "line2": "2 33986  74.0369 291.2436 0040783   2.5986  63.5229 14.43233693881179"}}, "geometry": {"type": "Point", "coordinates": [-52.47166340862399, 45.89894021156561]}}, {"type": "Feature", "properties": {"norad_id": 33990, "name": "COSMOS 2251 DEB", "group": "cosmos-2251-debris", "lat": 37.333212132045624, "lon": -71.95531395614715, "alt_km": 1134.772853410339, "timestamp": "2025-12-19T08:58:49.730335+00:00", "meta": {"OBJECT_NAME": "COSMOS 2251 DEB", "OBJECT_ID": "1993-036FZ", "EPOCH": "2025-12-18T20:37:17.396832", "MEAN_MOTION": 13.50004424, "ECCENTRICITY": 0.04074464, "INCLINATION": 73.9284, "RA_OF_ASC_NODE": 276.1698, "ARG_OF_PERICENTER": 295.3783, "MEAN_ANOMALY": 117.5072, "EPHEMERIS_TYPE": 0, "CLASSIFICATION_TYPE": "U", "NORAD_CAT_ID": 33990, "ELEMENT_SET_NO": 999, "REV_AT_EPOCH": 82812, "BSTAR": 0.00074193655, "MEAN_MOTION_DOT": 7.66e-06, "MEAN_MOTION_DDOT": 0}, "tle": {"line1": "1 33990U 93036FZ  25352.85922913  .00000766  00000+0  74194-3 0  9997", "line2": "2 33990  73.9284 276.1698 0407446 295.3783 117.5072 13.50004424828127"}}, "geometry": {"type": "Point", "coordinates": [-71.95531395614715, 37.333212132045624]}}, {"type": "Feature", "properties": {"norad_id": 33992, "name": "COSMOS 2251 DEB", "group": "cosmos-2251-debris", "lat": 73.77781730426544, "lon": 64.98053494737418, "alt_km": 629.9318046077906, "timestamp": "2025-12-19T08:58:49.730345+00:00", "meta": {"OBJECT_NAME": "COSMOS 2251 DEB", "OBJECT_ID": "1993-036GB", "EPOCH": "2025-12-18T23:00:54.719424", "MEAN_MOTION": 14.66261321, "ECCENTRICITY": 0.00517091, "INCLINATION": 74.0236, "RA_OF_ASC_NODE": 325.7397, "ARG_OF_PERICENTER": 81.6896, "MEAN_ANOMALY": 340.1221, "EPHEMERIS_TYPE": 0, "CLASSIFICATION_TYPE": "U", "NORAD_CAT_ID": 33992, "ELEMENT_SET_NO": 999, "REV_AT_EPOCH": 89216, "BSTAR": 0.00057602303, "MEAN_MOTION_DOT": 3.208e-05, "MEAN_MOTION_DDOT": 0}, "tle": {"line1": "1 33992U 93036GB  25352.95896666  .00003208  00000+0  57602-3 0  9994", "line2": "2 33992  74.0236 325.7397 0051709  81.6896 340.1221 14.66261321892167"}}, "geometry": {"type": "Point", "coordinates": [64.98053494737418, 73.77781730426544]}}, {"type": "Feature", "properties": {"norad_id": 33994, "name": "COSMOS 2251 DEB", "group": "cosmos-2251-debris", "lat": 49.04729368399767, "lon": -21.119464447798222, "alt_km": 766.6578807670157, "timestamp": "2025-12-19T08:58:49.730355+00:00", "meta": {"OBJECT_NAME": "COSMOS 2251 DEB", "OBJECT_ID": "1993-036GD", "EPOCH": "2025-12-18T23:05:51.019584", "MEAN_MOTION": 14.41218323, "ECCENTRICITY": 0.00238282, "INCLINATION": 74.0415, "RA_OF_ASC_NODE": 178.8944, "ARG_OF_PERICENTER": 312.1629, "MEAN_ANOMALY": 200.3184, "EPHEMERIS_TYPE": 0, "CLASSIFICATION_TYPE": "U", "NORAD_CAT_ID": 33994, "ELEMENT_SET_NO": 999, "REV_AT_EPOCH": 88509, "BSTAR": 7.3560078e-05, "MEAN_MOTION_DOT": 2.12e-06, "MEAN_MOTION_DDOT": 0}, "tle": {"line1": "1 33994U 93036GD  25352.96239606  .00000212  00000+0  73560-4 0  9996", "line2": "2 33994  74.0415 178.8944 0023828 312.1629 200.3184 14.41218323885096"}}, "geometry": {"type": "Point", "coordinates": [-21.119464447798222, 49.04729368399767]}}, {"type": "Feature", "properties": {"norad_id": 33995, "name": "COSMOS 2251 DEB", "group": "cosmos-2251-debris", "lat": 47.529261905401405, "lon": 125.40551626651938, "alt_km": 756.0502715423227, "timestamp": "2025-12-19T08:58:49.730366+00:00", "meta": {"OBJECT_NAME": "COSMOS 2251 DEB", "OBJECT_ID": "1993-036GE", "EPOCH": "2025-12-18T14:20:25.529280", "MEAN_MOTION": 14.34801448, "ECCENTRICITY": 0.00597099, "INCLINATION": 74.0615, "RA_OF_ASC_NODE": 108.6351, "ARG_OF_PERICENTER": 121.4202, "MEAN_ANOMALY": 239.2809, "EPHEMERIS_TYPE": 0, "CLASSIFICATION_TYPE": "U", "NORAD_CAT_ID": 33995, "ELEMENT_SET_NO": 999, "REV_AT_EPOCH": 87603, "BSTAR": 0.00066324304, "MEAN_MOTION_DOT": 1.895e-05, "MEAN_MOTION_DDOT": 0}, "tle": {"line1": "1 33995U 93036GE  25352.59751770  .00001895  00000+0  66324-3 0  9994", "line2": "2 33995  74.0615 108.6351 0059709 121.4202 239.2809 14.34801448876034"}}, "geometry": {"type": "Point", "coordinates": [125.40551626651938, 47.529261905401405]}}, {"type": "Feature", "properties": {"norad_id": 33999, "name": "COSMOS 2251 DEB", "group": "cosmos-2251-debris", "lat": -64.92295751992329, "lon": 179.48374639834404, "alt_km": 656.2609818656565, "timestamp": "2025-12-19T08:58:49.730375+00:00", "meta": {"OBJECT_NAME": "COSMOS 2251 DEB", "OBJECT_ID": "1993-036GJ", "EPOCH": "2025-12-18T20:21:07.566336", "MEAN_MOTION": 14.83481638, "ECCENTRICITY": 0.00444213, "INCLINATION": 73.9181, "RA_OF_ASC_NODE": 218.5938, "ARG_OF_PERICENTER": 112.3515, "MEAN_ANOMALY": 248.2379, "EPHEMERIS_TYPE": 0, "CLASSIFICATION_TYPE": "U", "NORAD_CAT_ID": 33999, "ELEMENT_SET_NO": 999, "REV_AT_EPOCH": 89341, "BSTAR": 0.00093543863, "MEAN_MOTION_DOT": 7.799e-05, "MEAN_MOTION_DDOT": 0}, "tle": {"line1": "1 33999U 93036GJ  25352.84800424  .00007799  00000+0  93544-3 0  9990", "line2": "2 33999  73.9181 218.5938 0044421 112.3515 248.2379 14.83481638893419"}}, "geometry": {"type": "Point", "coordinates": [179.48374639834404, -64.92295751992329]}}]}